SEEDS II (CO-66)        
1 32791U 08021J   26090.96767074  .00025480  00000+0  87692-3 0  9999
2 32791  97.7519  85.3438 0002367 167.8194 192.3103 15.30044271975475
YUBILEINY (RS30)        
1 32953U 08025A   26091.16134580 -.00000042  00000+0 -37112-3 0  9997
2 32953  82.5039  43.3413 0020313 117.2486 243.0666 12.43176651810122
KKS-1 (KISEKI)          
1 33499U 09002H   26091.20487483  .00001770  00000+0  22502-3 0  9991
2 33499  98.1190  12.4435 0007933 169.7443 190.3933 14.82912184924781
SWISSCUBE               
1 35932U 09051B   26091.19506800  .00001324  00000+0  27185-3 0  9999
2 35932  98.4082 357.7356 0008064  91.1069 269.1055 14.62320095877906
BEESAT-1                
1 35933U 09051C   26091.16505747  .00001092  00000+0  22971-3 0  9996
2 35933  98.4012 357.4995 0006478 102.4745 257.7181 14.61584111877936
ITUPSAT1                
1 35935U 09051E   26091.15730264  .00000998  00000+0  21651-3 0  9999
2 35935  98.4099 356.7639 0008560 113.1417 247.0685 14.60314700877495
XIWANG-1 (HOPE-1)       
1 36122U 09072B   26091.18076593 -.00000341  00000+0 -77590-3 0  9999
2 36122 100.3948  46.2691 0008053  52.0519 308.1321 13.16435432782879
O/OREOS (USA 219)       
1 37224U 10062C   26091.17262729  .00003110  00000+0  30120-3 0  9994
2 37224  71.9696 254.7424 0015970 218.6926 141.3101 14.93406211105145
JUGNU                   
1 37839U 11058B   26091.21820229  .00000513  00000+0  12822-3 0  9995
2 37839  19.9616  56.0298 0018367 306.5871  90.1936 14.13750810748129
SRMSAT                  
1 37841U 11058D   26091.23296322  .00000443  00000+0  96794-4 0  9994
2 37841  19.9706 165.2544 0011954  77.1208 313.8769 14.11555846746935
STRAND-1                
1 39090U 13009E   26090.98350264  .00000468  00000+0  17186-3 0  9991
2 39090  98.3904 273.1226 0009831 100.9702 259.2591 14.37114083685979
ZACUBE-1 (TSHEPISOSAT)  
1 39417U 13066B   26091.13775446  .00006179  00000+0  48446-3 0  9996
2 39417  97.8140  53.0704 0044813 146.9361 213.4678 15.00536123669170
GOMX-1                  
1 39430U 13066Q   26091.16404552  .00001934  00000+0  29755-3 0  9997
2 39430  97.6549 296.4668 0128452 325.4500  33.8407 14.69183434658606
CUBEBUG-2 (LO-74)       
1 39440U 13066AA  26090.81307638  .00006949  00000+0  65009-3 0  9999
2 39440  97.8846  39.5286 0056455 284.5697  74.9265 14.93211160665449
FUNCUBE-1 (AO-73)       
1 39444U 13066AE  26091.20005578  .00010106  00000+0  64376-3 0  9991
2 39444  97.8214  61.1316 0038839 104.9221 255.6312 15.08321494668051
UWE-3                   
1 39446U 13066AG  26090.86470664  .00005470  00000+0  47653-3 0  9993
2 39446  97.8625  46.4910 0048690 216.2953 143.4962 14.96405274666014
UNISAT-6                
1 40012U 14033C   26091.13769894  .00003828  00000+0  41782-3 0  9998
2 40012  97.7764 245.2728 0044439 323.7018  36.1186 14.87789995634709
DUCHIFAT-1              
1 40021U 14033M   26091.08375691  .00079619  00000+0  12785-2 0  9991
2 40021  98.0592 140.1969 0003465   4.2181 355.9099 15.52757333643741
QB50P1                  
1 40025U 14033R   26091.00849632  .00012332  00000+0  62665-3 0  9990
2 40025  98.0997  96.8079 0010522 123.8847 236.3387 15.16990758641326
LILACSAT-2              
1 40908U 15049K   26091.19766988  .00024554  00000+0  45604-3 0  9993
2 40908  97.4761 125.2126 0008175 158.6275 201.5318 15.48884228583827
FOX-1A (AO-85)          
1 40967U 15058D   26091.20464141  .00002411  00000+0  22594-3 0  9997
2 40967  64.7755 158.1338 0128362  86.8703 274.7087 14.90512029102095
CAS-2T & KS-1Q          
1 41847U 16066G   26091.21861637  .00001012  00000+0  15105-3 0  9993
2 41847  98.3854 167.8189 0342387   3.2993 357.0344 14.44527775493688
RADFXSAT (FOX-1B)       
1 43017U 17073E   26091.17571015  .00009970  00000+0  44851-3 0  9997
2 43017  97.4826 320.0010 0153080 233.9634 124.7331 15.11335915453755
DIWATA-2B               
1 43678U 18084H   26091.20251215  .00003313  00000+0  27062-3 0  9994
2 43678  98.1034 284.1646 0013735  60.6199 299.6392 15.00077643404670
ES'HAIL 2               
1 43700U 18090A   26091.10600237  .00000134  00000+0  00000+0 0  9995
2 43700   0.0133 238.1168 0001205 150.2786 225.0716  1.00275982 26903
FOX-1CLIFF (AO-95)      
1 43770U 18099N   26091.15378758  .00015792  00000+0  63425-3 0  9996
2 43770  97.4467 151.7540 0007522 254.4369 105.6039 15.25014222401476
ITASAT                  
1 43786U 18099AE  26091.12292810  .00009289  00000+0  45869-3 0  9990
2 43786  97.4120 144.1959 0011189 259.1414 100.8561 15.18041457401217
JY1SAT (JO-97)          
1 43803U 18099AX  26091.10856250  .00024437  00000+0  81214-3 0  9998
2 43803  97.4212 153.7921 0006463 171.2336 188.9019 15.31164368401824
UWE-4                   
1 43880U 18111E   26091.21134972  .00033302  00000+0  79296-3 0  9998
2 43880  97.5861  16.3418 0006314 229.5677 130.5019 15.41522951398909
TIANYAN 01              
1 44881U 19093C   26091.17038459  .00001863  00000+0  21694-3 0  9994
2 44881  97.7579 165.2721 0013164 347.0295  13.0581 14.86393066339975
RS-44 & BREEZE-KM R/B   
1 44909U 19096E   26091.07539484  .00000006  00000+0 -13588-4 0  9994
2 44909  82.5250  30.9397 0216936 324.9630  33.7357 12.79747800292483
SALSAT                  
1 46495U 20068K   26090.93271564  .00011291  00000+0  40791-3 0  9995
2 46495  97.8857  89.3646 0009098 203.5660 156.5162 15.28619331303559
XW-3 (CAS-9)            
1 50466U 21131B   26091.20553251  .00000789  00000+0  25769-3 0  9995
2 50466  98.4952 184.0300 0003552 346.4897  13.6196 14.41280213224024
GREENCUBE (IO-117)      
1 53109U 22080E   26090.98863877 -.00000003  00000+0  00000+0 0  9995
2 53109  70.1536 325.1039 0008976 306.3934  53.5898  6.42583190 87105
UMKA 1 (RS40S)          
1 57172U 23091G   26091.15588450  .00008910  00000+0  41657-3 0  9994
2 57172  97.5134 150.1695 0013668  35.2372 324.9764 15.19931843152306
CUBESX-HSE 3 (RS42S)    
1 57178U 23091N   26091.20838904  .00013314  00000+0  47024-3 0  9996
2 57178  97.5166 155.9116 0010945  13.4205 346.7323 15.29283635152657
MONITOR-3 (RS58S)       
1 57180U 23091Q   26091.20394925  .00011527  00000+0  44604-3 0  9994
2 57180  97.5160 154.1483 0012052  18.9885 341.1800 15.26296743152545
MONITOR-4 (RS57S)       
1 57182U 23091S   26091.18778028  .00011991  00000+0  46258-3 0  9995
2 57182  97.5154 154.0982 0012057  19.4108 340.7587 15.26386572152549
MONITOR-2 (RS39S)       
1 57184U 23091U   26091.21642058  .00005310  00000+0  26266-3 0  9999
2 57184  97.5158 150.0069 0011873  28.5644 331.6238 15.18184882152271
SVYATOBOR 1 (RS60S)     
1 57187U 23091X   26091.20561324  .00009779  00000+0  39078-3 0  9995
2 57187  97.5166 154.6466 0009529  13.3059 346.8428 15.25292485152570
VIZARD-METEO (RS38S)    
1 57189U 23091Z   26091.21496684  .00017095  00000+0  52794-3 0  9994
2 57189  97.5156 159.2802 0006835 356.1855   3.9334 15.33593464152886
NANOZOND 1 (RS49S)      
1 57190U 23091AA  26090.78169967  .00478768  00000+0  17141-2 0  9992
2 57190  97.5011 172.9892 0006119 263.9398  96.1176 15.87644165153761
POLYTECH-UNIVERSE 3 (R*)
1 57191U 23091AB  26091.18773539  .00005642  00000+0  27689-3 0  9990
2 57191  97.5131 149.4844 0016597  42.4606 317.7909 15.18375497152267
UTMN 2 (RS27S)          
1 57203U 23091AP  26091.20380704  .00014159  00000+0  48708-3 0  9993
2 57203  97.5158 157.4457 0007840   2.8916 357.2368 15.30156813152760
KUZGTU 1 (RS47S)        
1 57217U 23091AV  26091.20125300  .00013229  00000+0  48434-3 0  9990
2 57217  97.5140 154.9744 0011245  16.8094 343.3515 15.28101637152618
SONATE-2                
1 59112U 24043Q   26091.15768513  .00041229  00000+0  65484-3 0  9992
2 59112  97.5434 237.2034 0007829 126.0667 234.1312 15.53201661115910
MESAT1                  
1 60209U 24125G   26091.09955752  .00059945  00000+0  86280-3 0  9999
2 60209  97.2416 307.2132 0012593 139.3621 220.8576 15.55767482 97557
OOV-CUBE (TUBSAT-30)    
1 60240U 24128F   26091.19297160  .00002280  00000+0  18226-3 0  9995
2 60240  61.9938 133.9720 0052670 116.9613 243.6872 15.02392513 94547
COLIBRI-S (RS67S)       
1 61746U 24199M   26091.17370425  .00021979  00000+0  47431-3 0  9995
2 61746  97.3119 324.4583 0008798 188.6277 171.4822 15.44524802125510
HORS 3 (RS81S)          
1 61753U 24199U   26091.18988367  .00035089  00000+0  62664-3 0  9996
2 61753  97.3092 325.7468 0006773 188.3111 171.8029 15.49944686125614
HORS 4 (RS82S)          
1 61754U 24199V   26091.14997211  .00043479  00000+0  69228-3 0  9996
2 61754  97.3065 326.4967 0006526 183.3248 176.7963 15.53131076125661
HORIZON (RS59S)         
1 61757U 24199Y   26091.19262012  .00208823  00000+0  12179-2 0  9996
2 61757  97.3002 331.1123 0006205 154.3328 205.8248 15.77811044125962
ARCTICSAT 1 (RS74S)     
1 61762U 24199AD  26091.09285191  .00157356  00000+0  12366-2 0  9996
2 61762  97.3037 330.3463 0006243 154.6443 205.5128 15.71006631125907
SIT-2086                
1 61764U 24199AF  26091.21414548  .00023481  00000+0  43724-3 0  9996
2 61764  97.3080 326.4695 0007017 176.8942 183.2354 15.48825624122501
HYPERVIEW 1G (RS66S)    
1 61772U 24199AP  26091.14932286  .00097321  00000+0  11338-2 0  9990
2 61772  97.3039 327.8540 0007814 182.4537 177.6684 15.61321684122602
ALTAIR (RS65S)          
1 61779U 24199AW  26091.18820381  .00009858  00000+0  28721-3 0  9996
2 61779  97.3146 321.0809 0012111 216.4128 143.6293 15.35516440125296
ASRTU-1 (AO-123)        
1 61781U 24199AY  26091.18191020  .00009083  00000+0  27338-3 0  9993
2 61781  97.3119 320.5608 0013005 219.3632 140.6667 15.34504220122117
TUSUR GO (RS78S)        
1 61782U 24199AZ  26091.19047659  .00249648  00000+0  13443-2 0  9997
2 61782  97.2951 330.1416 0006473 165.5744 194.5710 15.79489383122761
SAMSAT-IONOSPHERE (RS7*)
1 61784U 24199BB  26091.19508715  .00041378  00000+0  70018-3 0  9996
2 61784  97.3078 325.5870 0009505 193.6606 166.4390 15.51411728125600
